{
  "norad_id": 58447,
  "name": "STARLINK-30976",
  "history": [
    {
      "epoch": "2026-03-28T21:42:24.995808",
      "apogee_km": 486.5030276031066,
      "perigee_km": 484.70335492495724,
      "latitude_deg": -7.519155053119354,
      "longitude_deg": 111.52777311974205,
      "semi_major_axis_km": 6863.740191264032,
      "eccentricity": 0.0001311,
      "inclination_deg": 43.0037,
      "raan_deg": 293.0767,
      "arg_perigee_deg": 273.9922,
      "mean_anomaly_deg": 86.078,
      "mean_motion_rev_day": 15.26727428
    }
  ]
}