{"fetched_at":"2026-03-29T16:36:15Z","count":15609,"tles":[{"name":"STARLINK-30976","line1":"1 58447U 23183L   26087.90445597 -.00000217  00000+0  15925-5 0  9998","line2":"2 58447  43.0037 293.0767 0001311 273.9922  86.0780 15.26727428129679","category":"Starlink"}]}